{
  "type": "FeatureCollection",
  "features": [
    {
      "type": "Feature",
      "properties": {
        "norad_id": 2807,
        "name": "OPS 7218 (TRANSIT 16)",
        "group": "nnss",
        "lat": 50.44756953582039,
        "lon": -5.460152008748854,
        "alt_km": 1060.4814155744461,
        "timestamp": "2025-12-08T21:31:04.936229+00:00",
        "meta_object_name": "OPS 7218 (TRANSIT 16)",
        "meta_object_id": "1967-048A",
        "meta_epoch": "2025-12-08T14:44:22.259328",
        "meta_mean_motion": 13.50721165,
        "meta_eccentricity": 0.00217748,
        "meta_inclination": 89.6731,
        "meta_ra_of_asc_node": 354.1531,
        "meta_arg_of_pericenter": 125.1393,
        "meta_mean_anomaly": 353.05,
        "meta_ephemeris_type": 0,
        "meta_classification_type": "U",
        "meta_norad_cat_id": 2807,
        "meta_element_set_no": 999,
        "meta_rev_at_epoch": 88220,
        "meta_bstar": 0.00024293801,
        "meta_mean_motion_dot": 1.67e-06,
        "meta_mean_motion_ddot": 0,
        "tle_line1": "1 02807U 67048A   25342.61414652  .00000167  00000+0  24294-3 0  9994",
        "tle_line2": "2 02807  89.6731 354.1531 0021774 125.1393 353.0500 13.50721165882207"
      },
      "geometry": {
        "type": "Point",
        "coordinates": [
          -5.460152008748854,
          50.44756953582039
        ]
      }
    },
    {
      "type": "Feature",
      "properties": {
        "norad_id": 2965,
        "name": "OPS 4947 (TRANSIT 17)",
        "group": "nnss",
        "lat": 77.35469894036976,
        "lon": 28.076292771564365,
        "alt_km": 1085.9392132353587,
        "timestamp": "2025-12-08T21:31:04.936251+00:00",
        "meta_object_name": "OPS 4947 (TRANSIT 17)",
        "meta_object_id": "1967-092A",
        "meta_epoch": "2025-12-08T14:35:47.491584",
        "meta_mean_motion": 13.53452101,
        "meta_eccentricity": 0.00459548,
        "meta_inclination": 89.2499,
        "meta_ra_of_asc_node": 24.7508,
        "meta_arg_of_pericenter": 246.8901,
        "meta_mean_anomaly": 226.2607,
        "meta_ephemeris_type": 0,
        "meta_classification_type": "U",
        "meta_norad_cat_id": 2965,
        "meta_element_set_no": 999,
        "meta_rev_at_epoch": 87041,
        "meta_bstar": 0.00028038145,
        "meta_mean_motion_dot": 2.01e-06,
        "meta_mean_motion_ddot": 0,
        "tle_line1": "1 02965U 67092A   25342.60818856  .00000201  00000+0  28038-3 0  9990",
        "tle_line2": "2 02965  89.2499  24.7508 0045954 246.8901 226.2607 13.53452101870418"
      },
      "geometry": {
        "type": "Point",
        "coordinates": [
          28.076292771564365,
          77.35469894036976
        ]
      }
    },
    {
      "type": "Feature",
      "properties": {
        "norad_id": 3133,
        "name": "OPS 7034 (TRANSIT 18)",
        "group": "nnss",
        "lat": -73.62123461203352,
        "lon": 93.5340101463189,
        "alt_km": 1057.828206298982,
        "timestamp": "2025-12-08T21:31:04.936265+00:00",
        "meta_object_name": "OPS 7034 (TRANSIT 18)",
        "meta_object_id": "1968-012A",
        "meta_epoch": "2025-12-08T14:01:16.720320",
        "meta_mean_motion": 13.51564345,
        "meta_eccentricity": 0.00734508,
        "meta_inclination": 90.0276,
        "meta_ra_of_asc_node": 273.6271,
        "meta_arg_of_pericenter": 181.2062,
        "meta_mean_anomaly": 352.6337,
        "meta_ephemeris_type": 0,
        "meta_classification_type": "U",
        "meta_norad_cat_id": 3133,
        "meta_element_set_no": 999,
        "meta_rev_at_epoch": 56862,
        "meta_bstar": 0.00030228148,
        "meta_mean_motion_dot": 2.1e-06,
        "meta_mean_motion_ddot": 0,
        "tle_line1": "1 03133U 68012A   25342.58422130  .00000210  00000+0  30228-3 0  9998",
        "tle_line2": "2 03133  90.0276 273.6271 0073450 181.2062 352.6337 13.51564345568626"
      },
      "geometry": {
        "type": "Point",
        "coordinates": [
          93.5340101463189,
          -73.62123461203352
        ]
      }
    },
    {
      "type": "Feature",
      "properties": {
        "norad_id": 4507,
        "name": "NNSS 19 (TRANSIT 19)",
        "group": "nnss",
        "lat": -45.88424992083746,
        "lon": 54.525373413094435,
        "alt_km": 1047.482656770766,
        "timestamp": "2025-12-08T21:31:04.936277+00:00",
        "meta_object_name": "NNSS 19 (TRANSIT 19)",
        "meta_object_id": "1970-067A",
        "meta_epoch": "2025-12-08T15:03:19.326528",
        "meta_mean_motion": 13.51313712,
        "meta_eccentricity": 0.01707985,
        "meta_inclination": 90.0056,
        "meta_ra_of_asc_node": 234.531,
        "meta_arg_of_pericenter": 305.3949,
        "meta_mean_anomaly": 53.1349,
        "meta_ephemeris_type": 0,
        "meta_classification_type": "U",
        "meta_norad_cat_id": 4507,
        "meta_element_set_no": 999,
        "meta_rev_at_epoch": 72166,
        "meta_bstar": 0.00034759109,
        "meta_mean_motion_dot": 2.55e-06,
        "meta_mean_motion_ddot": 0,
        "tle_line1": "1 04507U 70067A   25342.62730702  .00000255  00000+0  34759-3 0  9991",
        "tle_line2": "2 04507  90.0056 234.5310 0170798 305.3949  53.1349 13.51313712721665"
      },
      "geometry": {
        "type": "Point",
        "coordinates": [
          54.525373413094435,
          -45.88424992083746
        ]
      }
    },
    {
      "type": "Feature",
      "properties": {
        "norad_id": 6909,
        "name": "NNSS 20 (TRANSIT 20)",
        "group": "nnss",
        "lat": 20.641033886231163,
        "lon": -104.83401535329791,
        "alt_km": 951.3342345972014,
        "timestamp": "2025-12-08T21:31:04.936288+00:00",
        "meta_object_name": "NNSS 20 (TRANSIT 20)",
        "meta_object_id": "1973-081A",
        "meta_epoch": "2025-12-08T12:39:46.833696",
        "meta_mean_motion": 13.71431459,
        "meta_eccentricity": 0.01566029,
        "meta_inclination": 89.8561,
        "meta_ra_of_asc_node": 255.1173,
        "meta_arg_of_pericenter": 90.7843,
        "meta_mean_anomaly": 271.1266,
        "meta_ephemeris_type": 0,
        "meta_classification_type": "U",
        "meta_norad_cat_id": 6909,
        "meta_element_set_no": 999,
        "meta_rev_at_epoch": 80303,
        "meta_bstar": 0.00038433291,
        "meta_mean_motion_dot": 3.89e-06,
        "meta_mean_motion_ddot": 0,
        "tle_line1": "1 06909U 73081A   25342.52762539  .00000389  00000+0  38433-3 0  9991",
        "tle_line2": "2 06909  89.8561 255.1173 0156602  90.7843 271.1266 13.71431459803035"
      },
      "geometry": {
        "type": "Point",
        "coordinates": [
          -104.83401535329791,
          20.641033886231163
        ]
      }
    },
    {
      "type": "Feature",
      "properties": {
        "norad_id": 10457,
        "name": "TRANSAT",
        "group": "nnss",
        "lat": -85.70649539705894,
        "lon": -96.57296589673281,
        "alt_km": 1075.6946731675662,
        "timestamp": "2025-12-08T21:31:04.936299+00:00",
        "meta_object_name": "TRANSAT",
        "meta_object_id": "1977-106A",
        "meta_epoch": "2025-12-08T13:08:22.879392",
        "meta_mean_motion": 13.48942696,
        "meta_eccentricity": 0.00249987,
        "meta_inclination": 89.6482,
        "meta_ra_of_asc_node": 78.7454,
        "meta_arg_of_pericenter": 201.7986,
        "meta_mean_anomaly": 169.3737,
        "meta_ephemeris_type": 0,
        "meta_classification_type": "U",
        "meta_norad_cat_id": 10457,
        "meta_element_set_no": 999,
        "meta_rev_at_epoch": 36687,
        "meta_bstar": 0.00023069083,
        "meta_mean_motion_dot": 1.55e-06,
        "meta_mean_motion_ddot": 0,
        "tle_line1": "1 10457U 77106A   25342.54748703  .00000155  00000+0  23069-3 0  9995",
        "tle_line2": "2 10457  89.6482  78.7454 0024998 201.7986 169.3737 13.48942696366874"
      },
      "geometry": {
        "type": "Point",
        "coordinates": [
          -96.57296589673281,
          -85.70649539705894
        ]
      }
    },
    {
      "type": "Feature",
      "properties": {
        "norad_id": 12458,
        "name": "NOVA 1",
        "group": "nnss",
        "lat": 18.17629169300268,
        "lon": -88.60903282393048,
        "alt_km": 1164.5990276776447,
        "timestamp": "2025-12-08T21:31:04.936310+00:00",
        "meta_object_name": "NOVA 1",
        "meta_object_id": "1981-044A",
        "meta_epoch": "2025-12-08T13:30:01.310688",
        "meta_mean_motion": 13.23277843,
        "meta_eccentricity": 0.00157781,
        "meta_inclination": 89.8524,
        "meta_ra_of_asc_node": 91.4442,
        "meta_arg_of_pericenter": 114.2565,
        "meta_mean_anomaly": 256.8075,
        "meta_ephemeris_type": 0,
        "meta_classification_type": "U",
        "meta_norad_cat_id": 12458,
        "meta_element_set_no": 999,
        "meta_rev_at_epoch": 15131,
        "meta_bstar": 0.00027429807,
        "meta_mean_motion_dot": 1.25e-06,
        "meta_mean_motion_ddot": 0,
        "tle_line1": "1 12458U 81044A   25342.56251517  .00000125  00000+0  27430-3 0  9991",
        "tle_line2": "2 12458  89.8524  91.4442 0015778 114.2565 256.8075 13.23277843151318"
      },
      "geometry": {
        "type": "Point",
        "coordinates": [
          -88.60903282393048,
          18.17629169300268
        ]
      }
    }
  ]
}